{
"type": "FeatureCollection",
"name": "processed_311_reports",
"crs": { "type": "name", "properties": { "name": "urn:ogc:def:crs:OGC:1.3:CRS84" } },
"features": [
{ "type": "Feature", "properties": { "service_request_number": "26-00448107", "address": "9226 LIPTONSHIRE DR, DALLAS, TX, 75238", "city_council_district": "10", "department": "Code Compliance", "service_request_type": "Code Concern - CCS", "ert_estimated_response_time": "4 Business Days", "status": "New", "created_date": "2026-10-09T19:16:36.000", "update_date": "2026-10-09T19:21:12.000", "priority": "Standard", "method_received_description": "Phone", "unique_key": "500cs00002NgKdaAAF", "lat_location": "(32.87329193474746000,-96.70574404837721000)", "closed_date": null, "overall_service_request_due_date": null, "lat": 32.873291934747463, "lon": -96.705744048377198 }, "geometry": { "type": "Point", "coordinates": [ -96.705744048377198, 32.873291934747463 ] } },
{ "type": "Feature", "properties": { "service_request_number": "26-00448094", "address": "9236 CHURCH RD, DALLAS, TX, 75231", "city_council_district": "10", "department": "Code Compliance", "service_request_type": "Code Concern - CCS", "ert_estimated_response_time": "4 Business Days", "status": "New", "created_date": "2026-10-09T19:04:47.000", "update_date": "2026-10-09T19:04:56.000", "priority": "Standard", "method_received_description": "API", "unique_key": "500cs00002NgEzZAAV", "lat_location": "(32.88587411558901000,-96.73221013469520000)", "closed_date": null, "overall_service_request_due_date": null, "lat": 32.885874115589012, "lon": -96.732210134695194 }, "geometry": { "type": "Point", "coordinates": [ -96.732210134695194, 32.885874115589012 ] } },
{ "type": "Feature", "properties": { "service_request_number": "26-00447781", "address": "9511 LIPTONSHIRE DR, DALLAS, TX, 75238", "city_council_district": "10", "department": "Code Compliance", "service_request_type": "Code Concern - CCS", "ert_estimated_response_time": "4 Business Days", "status": "In Progress", "created_date": "2026-10-09T15:11:56.000", "update_date": "2026-10-09T16:12:09.000", "priority": "Standard", "method_received_description": "Proactive", "unique_key": "500cs00002NdLmHAAV", "lat_location": "(32.87628804300321000,-96.70660124159788000)", "closed_date": null, "overall_service_request_due_date": null, "lat": 32.876288043003207, "lon": -96.706601241597895 }, "geometry": { "type": "Point", "coordinates": [ -96.706601241597895, 32.876288043003207 ] } },
{ "type": "Feature", "properties": { "service_request_number": "26-00447689", "address": "9050 MARKVILLE DR, DALLAS, TX, 75243", "city_council_district": "10", "department": "Code Compliance", "service_request_type": "Code Concern - CCS", "ert_estimated_response_time": "4 Business Days", "status": "New", "created_date": "2026-10-09T14:42:19.000", "update_date": "2026-10-09T14:42:25.000", "priority": "Standard", "method_received_description": "Phone", "unique_key": "500cs00002NcNGgAAN", "lat_location": "(32.91388080278279000,-96.74894321931862000)", "closed_date": null, "overall_service_request_due_date": null, "lat": 32.913880802782792, "lon": -96.748943219318619 }, "geometry": { "type": "Point", "coordinates": [ -96.748943219318619, 32.913880802782792 ] } },
{ "type": "Feature", "properties": { "service_request_number": "26-00447570", "address": "9510 TIMBERLEAF DR, DALLAS, TX, 75243", "city_council_district": "10", "department": "Code Compliance", "service_request_type": "Code Concern - CCS", "ert_estimated_response_time": "4 Business Days", "status": "New", "created_date": "2026-10-09T14:05:19.000", "update_date": "2026-10-09T14:05:24.000", "priority": "Standard", "method_received_description": "API", "unique_key": "500cs00002Nc8JFAAZ", "lat_location": "(32.90578045929874000,-96.73259538302707000)", "closed_date": null, "overall_service_request_due_date": null, "lat": 32.90578045929874, "lon": -96.732595383027075 }, "geometry": { "type": "Point", "coordinates": [ -96.732595383027075, 32.90578045929874 ] } },
{ "type": "Feature", "properties": { "service_request_number": "26-00447563", "address": "9495 TIMBERLEAF DR, DALLAS, TX, 75243", "city_council_district": "10", "department": "Code Compliance", "service_request_type": "Code Concern - CCS", "ert_estimated_response_time": "4 Business Days", "status": "New", "created_date": "2026-10-09T14:03:11.000", "update_date": "2026-10-09T14:03:18.000", "priority": "Standard", "method_received_description": "API", "unique_key": "500cs00002NaPEbAAN", "lat_location": "(32.90632144906102500,-96.73289338886732000)", "closed_date": null, "overall_service_request_due_date": null, "lat": 32.906321449061025, "lon": -96.732893388867325 }, "geometry": { "type": "Point", "coordinates": [ -96.732893388867325, 32.906321449061025 ] } },
{ "type": "Feature", "properties": { "service_request_number": "26-00447556", "address": "12516 AUDELIA RD, DALLAS, TX, 75243", "city_council_district": "10", "department": "Code Compliance", "service_request_type": "Code Concern - CCS", "ert_estimated_response_time": "4 Business Days", "status": "New", "created_date": "2026-10-09T14:01:01.000", "update_date": "2026-10-09T14:01:11.000", "priority": "Standard", "method_received_description": "API", "unique_key": "500cs00002Nb1waAAB", "lat_location": "(32.91859156269552000,-96.71745823437685000)", "closed_date": null, "overall_service_request_due_date": null, "lat": 32.918591562695518, "lon": -96.717458234376835 }, "geometry": { "type": "Point", "coordinates": [ -96.717458234376835, 32.918591562695518 ] } },
{ "type": "Feature", "properties": { "service_request_number": "26-00447455", "address": "9701 W FERRIS BRANCH BLVD, DALLAS, TX, 75243", "city_council_district": "10", "department": "Code Compliance", "service_request_type": "Code Concern - CCS", "ert_estimated_response_time": "4 Business Days", "status": "New", "created_date": "2026-10-09T13:08:34.000", "update_date": "2026-10-09T13:08:38.000", "priority": "Standard", "method_received_description": "Phone", "unique_key": "500cs00002Nav37AAB", "lat_location": "(32.90336554974217600,-96.72499299193332000)", "closed_date": null, "overall_service_request_due_date": null, "lat": 32.903365549742176, "lon": -96.724992991933306 }, "geometry": { "type": "Point", "coordinates": [ -96.724992991933306, 32.903365549742176 ] } },
{ "type": "Feature", "properties": { "service_request_number": "26-00447423", "address": "13421 HEDGEAPPLE DR, DALLAS, TX, 75243", "city_council_district": "10", "department": "Code Compliance", "service_request_type": "Code Concern - CCS", "ert_estimated_response_time": "4 Business Days", "status": "New", "created_date": "2026-10-09T12:48:38.000", "update_date": "2026-10-09T13:34:18.000", "priority": "Standard", "method_received_description": "API", "unique_key": "500cs00002NaW9ZAAV", "lat_location": "(32.93037521764748000,-96.71127392739095000)", "closed_date": null, "overall_service_request_due_date": null, "lat": 32.93037521764748, "lon": -96.711273927390963 }, "geometry": { "type": "Point", "coordinates": [ -96.711273927390963, 32.93037521764748 ] } },
{ "type": "Feature", "properties": { "service_request_number": "26-00447405", "address": "12131 LARCHGATE DR, DALLAS, TX, 75243", "city_council_district": "10", "department": "Code Compliance", "service_request_type": "Code Concern - CCS", "ert_estimated_response_time": "4 Business Days", "status": "New", "created_date": "2026-10-09T12:38:55.000", "update_date": "2026-10-09T12:39:01.000", "priority": "Standard", "method_received_description": "API", "unique_key": "500cs00002Na8KAAAZ", "lat_location": "(32.91375277542356000,-96.71487025909987000)", "closed_date": null, "overall_service_request_due_date": null, "lat": 32.913752775423561, "lon": -96.714870259099868 }, "geometry": { "type": "Point", "coordinates": [ -96.714870259099868, 32.913752775423561 ] } },
{ "type": "Feature", "properties": { "service_request_number": "26-00447400", "address": "12024 OBERLIN DR, DALLAS, TX, 75243", "city_council_district": "10", "department": "Code Compliance", "service_request_type": "Code Concern - CCS", "ert_estimated_response_time": "4 Business Days", "status": "New", "created_date": "2026-10-09T12:36:48.000", "update_date": "2026-10-09T12:36:55.000", "priority": "Standard", "method_received_description": "API", "unique_key": "500cs00002NZK0rAAH", "lat_location": "(32.91162100084610000,-96.75932519696303000)", "closed_date": null, "overall_service_request_due_date": null, "lat": 32.911621000846097, "lon": -96.759325196963033 }, "geometry": { "type": "Point", "coordinates": [ -96.759325196963033, 32.911621000846097 ] } },
{ "type": "Feature", "properties": { "service_request_number": "26-00447392", "address": "12118 OBERLIN DR, DALLAS, TX, 75243", "city_council_district": "10", "department": "Code Compliance", "service_request_type": "Code Concern - CCS", "ert_estimated_response_time": "4 Business Days", "status": "New", "created_date": "2026-10-09T12:32:34.000", "update_date": "2026-10-09T12:32:42.000", "priority": "Standard", "method_received_description": "API", "unique_key": "500cs00002NZ0lJAAT", "lat_location": "(32.91238094015873000,-96.75866868380110000)", "closed_date": null, "overall_service_request_due_date": null, "lat": 32.912380940158727, "lon": -96.758668683801105 }, "geometry": { "type": "Point", "coordinates": [ -96.758668683801105, 32.912380940158727 ] } },
{ "type": "Feature", "properties": { "service_request_number": "26-00447216", "address": "9747 WHITEHURST DR, DALLAS, TX, 75243", "city_council_district": "10", "department": "Code Compliance", "service_request_type": "Code Concern - CCS", "ert_estimated_response_time": "4 Business Days", "status": "New", "created_date": "2026-10-09T11:21:51.000", "update_date": "2026-10-09T11:21:56.000", "priority": "Standard", "method_received_description": "Phone", "unique_key": "500cs00002NYbIGAA1", "lat_location": "(32.90122759459260500,-96.72625000540721000)", "closed_date": null, "overall_service_request_due_date": null, "lat": 32.901227594592605, "lon": -96.726250005407195 }, "geometry": { "type": "Point", "coordinates": [ -96.726250005407195, 32.901227594592605 ] } },
{ "type": "Feature", "properties": { "service_request_number": "26-00447196", "address": "9974 LARCHBROOK DR, DALLAS, TX, 75238", "city_council_district": "10", "department": "Code Compliance", "service_request_type": "Code Concern - CCS", "ert_estimated_response_time": "4 Business Days", "status": "Closed", "created_date": "2026-10-09T11:14:43.000", "update_date": "2026-10-09T11:34:16.000", "priority": "Standard", "method_received_description": "Phone", "unique_key": "500cs00002NXlZoAAL", "lat_location": "(32.87939845621117000,-96.71224663290774000)", "closed_date": "2026-10-09T11:34:15.000", "overall_service_request_due_date": null, "lat": 32.87939845621117, "lon": -96.71224663290775 }, "geometry": { "type": "Point", "coordinates": [ -96.71224663290775, 32.87939845621117 ] } },
{ "type": "Feature", "properties": { "service_request_number": "26-00447192", "address": "9974 LARCHBROOK DR, DALLAS, TX, 75238", "city_council_district": "10", "department": "Code Compliance", "service_request_type": "Code Concern - CCS", "ert_estimated_response_time": "4 Business Days", "status": "In Progress", "created_date": "2026-10-09T11:13:01.000", "update_date": "2026-10-09T11:30:33.000", "priority": "Standard", "method_received_description": "311-App", "unique_key": "500cs00002NYaHJAA1", "lat_location": "(32.87939845621117000,-96.71224663290774000)", "closed_date": null, "overall_service_request_due_date": null, "lat": 32.87939845621117, "lon": -96.71224663290775 }, "geometry": { "type": "Point", "coordinates": [ -96.71224663290775, 32.87939845621117 ] } },
{ "type": "Feature", "properties": { "service_request_number": "26-00447118", "address": "10677 E NORTHWEST HWY, DALLAS, TX, 75238", "city_council_district": "10", "department": "Code Compliance", "service_request_type": "Consumer Protection Complaint - CCS", "ert_estimated_response_time": "5 Business Days", "status": "New", "created_date": "2026-10-09T10:50:09.000", "update_date": "2026-10-09T10:50:15.000", "priority": "Standard", "method_received_description": "Internal", "unique_key": "500cs00002NXdfSAAT", "lat_location": "(32.86444542625307000,-96.70127925335906000)", "closed_date": null, "overall_service_request_due_date": "2026-11-25T00:59:00.000", "lat": 32.86444542625307, "lon": -96.701279253359061 }, "geometry": { "type": "Point", "coordinates": [ -96.701279253359061, 32.86444542625307 ] } },
{ "type": "Feature", "properties": { "service_request_number": "26-00447078", "address": "9699 PLANO RD, DALLAS, TX, 75238", "city_council_district": "10", "department": "Code Compliance", "service_request_type": "Code Concern - CCS", "ert_estimated_response_time": "4 Business Days", "status": "New", "created_date": "2026-10-09T10:34:44.000", "update_date": "2026-10-09T10:34:51.000", "priority": "Standard", "method_received_description": "API", "unique_key": "500cs00002NWZu4AAH", "lat_location": "(32.87882839951450400,-96.70069609885128000)", "closed_date": null, "overall_service_request_due_date": null, "lat": 32.878828399514504, "lon": -96.700696098851282 }, "geometry": { "type": "Point", "coordinates": [ -96.700696098851282, 32.878828399514504 ] } },
{ "type": "Feature", "properties": { "service_request_number": "26-00447073", "address": "9460 ROLLING ROCK LN, DALLAS, TX, 75238", "city_council_district": "10", "department": "Code Compliance", "service_request_type": "Code Concern - CCS", "ert_estimated_response_time": "4 Business Days", "status": "New", "created_date": "2026-10-09T10:33:06.000", "update_date": "2026-10-09T10:33:13.000", "priority": "Standard", "method_received_description": "API", "unique_key": "500cs00002NXiLlAAL", "lat_location": "(32.87558905360145000,-96.69385133634358000)", "closed_date": null, "overall_service_request_due_date": null, "lat": 32.875589053601445, "lon": -96.693851336343585 }, "geometry": { "type": "Point", "coordinates": [ -96.693851336343585, 32.875589053601445 ] } },
{ "type": "Feature", "properties": { "service_request_number": "26-00447049", "address": "9050 MARKVILLE DR, DALLAS, TX, 75243", "city_council_district": "10", "department": "Code Compliance", "service_request_type": "Code Concern - CCS", "ert_estimated_response_time": "4 Business Days", "status": "New", "created_date": "2026-10-09T10:20:52.000", "update_date": "2026-10-09T11:33:34.000", "priority": "Standard", "method_received_description": "Phone", "unique_key": "500cs00002NWVP2AAP", "lat_location": "(32.91388080278279000,-96.74894321931862000)", "closed_date": null, "overall_service_request_due_date": null, "lat": 32.913880802782792, "lon": -96.748943219318619 }, "geometry": { "type": "Point", "coordinates": [ -96.748943219318619, 32.913880802782792 ] } },
{ "type": "Feature", "properties": { "service_request_number": "26-00447014", "address": "9535 FOREST LN, DALLAS, TX, 75243", "city_council_district": "10", "department": "Code Compliance", "service_request_type": "Code Concern - CCS", "ert_estimated_response_time": "4 Business Days", "status": "New", "created_date": "2026-10-09T10:09:07.000", "update_date": "2026-10-09T10:09:13.000", "priority": "Standard", "method_received_description": "Phone", "unique_key": "500cs00002NWcv8AAD", "lat_location": "(32.90937149157872000,-96.72929303984328000)", "closed_date": null, "overall_service_request_due_date": null, "lat": 32.909371491578717, "lon": -96.729293039843284 }, "geometry": { "type": "Point", "coordinates": [ -96.729293039843284, 32.909371491578717 ] } },
{ "type": "Feature", "properties": { "service_request_number": "26-00446971", "address": "ABRAMS RD & FOREST LN, DALLAS, TX, 75243", "city_council_district": "10", "department": "Code Compliance", "service_request_type": "Code Concern - CCS", "ert_estimated_response_time": "4 Business Days", "status": "New", "created_date": "2026-10-09T09:51:10.000", "update_date": "2026-10-09T09:51:17.000", "priority": "Standard", "method_received_description": "Phone", "unique_key": "500cs00002NURe7AAH", "lat_location": "(32.90923826897324000,-96.73553308604548000)", "closed_date": null, "overall_service_request_due_date": null, "lat": 32.90923826897324, "lon": -96.735533086045479 }, "geometry": { "type": "Point", "coordinates": [ -96.735533086045479, 32.90923826897324 ] } },
{ "type": "Feature", "properties": { "service_request_number": "26-00446901", "address": "11911 GREENVILLE AVE, DALLAS, TX, 75243", "city_council_district": "10", "department": "Code Compliance", "service_request_type": "Code Concern - CCS", "ert_estimated_response_time": "4 Business Days", "status": "New", "created_date": "2026-10-09T09:21:42.000", "update_date": "2026-10-09T10:08:16.000", "priority": "Standard", "method_received_description": "Phone", "unique_key": "500cs00002NUqUNAA1", "lat_location": "(32.91153680433096400,-96.74627708293399000)", "closed_date": null, "overall_service_request_due_date": null, "lat": 32.911536804330964, "lon": -96.746277082934 }, "geometry": { "type": "Point", "coordinates": [ -96.746277082934, 32.911536804330964 ] } },
{ "type": "Feature", "properties": { "service_request_number": "26-00446866", "address": "9026 LEASIDE DR, DALLAS, TX, 75238", "city_council_district": "10", "department": "Code Compliance", "service_request_type": "Code Concern - CCS", "ert_estimated_response_time": "4 Business Days", "status": "New", "created_date": "2026-10-09T09:01:32.000", "update_date": "2026-10-09T09:01:40.000", "priority": "Standard", "method_received_description": "API", "unique_key": "500cs00002NU5nFAAT", "lat_location": "(32.87015472157625600,-96.70273587845236000)", "closed_date": null, "overall_service_request_due_date": null, "lat": 32.870154721576256, "lon": -96.702735878452359 }, "geometry": { "type": "Point", "coordinates": [ -96.702735878452359, 32.870154721576256 ] } },
{ "type": "Feature", "properties": { "service_request_number": "26-00446857", "address": "8883 LARCHWOOD DR, DALLAS, TX, 75238", "city_council_district": "10", "department": "Code Compliance", "service_request_type": "Code Concern - CCS", "ert_estimated_response_time": "4 Business Days", "status": "New", "created_date": "2026-10-09T08:57:08.000", "update_date": "2026-10-09T09:43:13.000", "priority": "Standard", "method_received_description": "API", "unique_key": "500cs00002NV1fvAAD", "lat_location": "(32.86850658368721000,-96.70417978703415000)", "closed_date": null, "overall_service_request_due_date": null, "lat": 32.868506583687207, "lon": -96.704179787034164 }, "geometry": { "type": "Point", "coordinates": [ -96.704179787034164, 32.868506583687207 ] } },
{ "type": "Feature", "properties": { "service_request_number": "26-00446662", "address": "12603 WHISPERING HILLS DR, DALLAS, TX, 75243", "city_council_district": "10", "department": "Code Compliance", "service_request_type": "Code Concern - CCS", "ert_estimated_response_time": "4 Business Days", "status": "New", "created_date": "2026-10-09T06:03:17.000", "update_date": "2026-10-09T06:03:23.000", "priority": "Standard", "method_received_description": "API", "unique_key": "500cs00002NT23QAAT", "lat_location": "(32.91904843557673000,-96.70923689777970000)", "closed_date": null, "overall_service_request_due_date": null, "lat": 32.919048435576727, "lon": -96.709236897779689 }, "geometry": { "type": "Point", "coordinates": [ -96.709236897779689, 32.919048435576727 ] } },
{ "type": "Feature", "properties": { "service_request_number": "26-00446583", "address": "10223 CHIMNEY HILL LN, DALLAS, TX, 75243", "city_council_district": "10", "department": "Code Compliance", "service_request_type": "Code Concern - CCS", "ert_estimated_response_time": "4 Business Days", "status": "New", "created_date": "2026-10-09T01:06:17.000", "update_date": "2026-10-09T11:01:46.000", "priority": "Standard", "method_received_description": "API", "unique_key": "500cs00002NSAxRAAX", "lat_location": "(32.91645956919110500,-96.72057066323461000)", "closed_date": null, "overall_service_request_due_date": null, "lat": 32.916459569191105, "lon": -96.720570663234597 }, "geometry": { "type": "Point", "coordinates": [ -96.720570663234597, 32.916459569191105 ] } },
{ "type": "Feature", "properties": { "service_request_number": "26-00446461", "address": "10110 WALNUT ST, DALLAS, TX, 75243", "city_council_district": "10", "department": "Code Compliance", "service_request_type": "Code Concern - CCS", "ert_estimated_response_time": "4 Business Days", "status": "Closed", "created_date": "2026-10-08T20:12:12.000", "update_date": "2026-10-09T15:08:41.000", "priority": "Emergency", "method_received_description": "Phone", "unique_key": "500cs00002NQnDJAA1", "lat_location": "(32.91912318449096000,-96.71138446977014000)", "closed_date": "2026-10-09T15:08:40.000", "overall_service_request_due_date": null, "lat": 32.919123184490957, "lon": -96.711384469770138 }, "geometry": { "type": "Point", "coordinates": [ -96.711384469770138, 32.919123184490957 ] } },
{ "type": "Feature", "properties": { "service_request_number": "26-00446355", "address": "8305 SOUTHMEADOW CIR, DALLAS, TX, 75231", "city_council_district": "10", "department": "Code Compliance", "service_request_type": "Code Concern - CCS", "ert_estimated_response_time": "4 Business Days", "status": "New", "created_date": "2026-10-08T18:31:56.000", "update_date": "2026-10-08T18:32:04.000", "priority": "Standard", "method_received_description": "API", "unique_key": "500cs00002NOrTCAA1", "lat_location": "(32.89201289697675000,-96.73205210171896000)", "closed_date": null, "overall_service_request_due_date": null, "lat": 32.892012896976752, "lon": -96.732052101718963 }, "geometry": { "type": "Point", "coordinates": [ -96.732052101718963, 32.892012896976752 ] } },
{ "type": "Feature", "properties": { "service_request_number": "26-00446324", "address": "9560 TIMBERLEAF DR, DALLAS, TX, 75243", "city_council_district": "10", "department": "Code Compliance", "service_request_type": "Code Concern - CCS", "ert_estimated_response_time": "4 Business Days", "status": "New", "created_date": "2026-10-08T18:03:36.000", "update_date": "2026-10-08T18:03:43.000", "priority": "Standard", "method_received_description": "API", "unique_key": "500cs00002NPcjlAAD", "lat_location": "(32.90549571764975000,-96.73081178486565000)", "closed_date": null, "overall_service_request_due_date": null, "lat": 32.90549571764975, "lon": -96.730811784865637 }, "geometry": { "type": "Point", "coordinates": [ -96.730811784865637, 32.90549571764975 ] } },
{ "type": "Feature", "properties": { "service_request_number": "26-00446171", "address": "9701 W FERRIS BRANCH BLVD, DALLAS, TX, 75243", "city_council_district": "10", "department": "Code Compliance", "service_request_type": "Code Concern - CCS", "ert_estimated_response_time": "4 Business Days", "status": "In Progress", "created_date": "2026-10-08T16:26:52.000", "update_date": "2026-10-09T10:55:16.000", "priority": "Emergency", "method_received_description": "Phone", "unique_key": "500cs00002NOJfxAAH", "lat_location": "(32.90336554974217600,-96.72499299193332000)", "closed_date": null, "overall_service_request_due_date": null, "lat": 32.903365549742176, "lon": -96.724992991933306 }, "geometry": { "type": "Point", "coordinates": [ -96.724992991933306, 32.903365549742176 ] } },
{ "type": "Feature", "properties": { "service_request_number": "26-00446061", "address": "10850 WALNUT HILL LN, DALLAS, TX, 75238", "city_council_district": "10", "department": "Code Compliance", "service_request_type": "Code Concern - CCS", "ert_estimated_response_time": "4 Business Days", "status": "In Progress", "created_date": "2026-10-08T15:39:43.000", "update_date": "2026-10-09T16:44:47.000", "priority": "Emergency", "method_received_description": "Phone", "unique_key": "500cs00002NMJLwAAP", "lat_location": "(32.87859313637739000,-96.69548686240299000)", "closed_date": null, "overall_service_request_due_date": null, "lat": 32.87859313637739, "lon": -96.695486862403001 }, "geometry": { "type": "Point", "coordinates": [ -96.695486862403001, 32.87859313637739 ] } },
{ "type": "Feature", "properties": { "service_request_number": "26-00445905", "address": "10458 LAS BRISAS DR, DALLAS, TX, 75243", "city_council_district": "10", "department": "Code Compliance", "service_request_type": "Code Concern - CCS", "ert_estimated_response_time": "4 Business Days", "status": "Closed", "created_date": "2026-10-08T14:47:51.000", "update_date": "2026-10-09T07:50:14.000", "priority": "Standard", "method_received_description": "Proactive", "unique_key": "500cs00002NKnMXAA1", "lat_location": "(32.91606160119740000,-96.70480203958450000)", "closed_date": "2026-10-09T07:50:13.000", "overall_service_request_due_date": null, "lat": 32.916061601197399, "lon": -96.704802039584493 }, "geometry": { "type": "Point", "coordinates": [ -96.704802039584493, 32.916061601197399 ] } },
{ "type": "Feature", "properties": { "service_request_number": "26-00445899", "address": "10466 LAS BRISAS DR, DALLAS, TX, 75243", "city_council_district": "10", "department": "Code Compliance", "service_request_type": "Code Concern - CCS", "ert_estimated_response_time": "4 Business Days", "status": "Closed", "created_date": "2026-10-08T14:46:49.000", "update_date": "2026-10-09T07:36:17.000", "priority": "Standard", "method_received_description": "Proactive", "unique_key": "500cs00002NLmctAAD", "lat_location": "(32.91605949023120000,-96.70463568143002000)", "closed_date": "2026-10-09T07:36:17.000", "overall_service_request_due_date": null, "lat": 32.916059490231198, "lon": -96.70463568143002 }, "geometry": { "type": "Point", "coordinates": [ -96.70463568143002, 32.916059490231198 ] } },
{ "type": "Feature", "properties": { "service_request_number": "26-00445894", "address": "10454 LAS BRISAS DR, DALLAS, TX, 75243", "city_council_district": "10", "department": "Code Compliance", "service_request_type": "Code Concern - CCS", "ert_estimated_response_time": "4 Business Days", "status": "Closed", "created_date": "2026-10-08T14:45:46.000", "update_date": "2026-10-09T07:33:06.000", "priority": "Standard", "method_received_description": "Proactive", "unique_key": "500cs00002NMQvGAAX", "lat_location": "(32.91606265659717000,-96.70488521866467000)", "closed_date": "2026-10-09T07:33:05.000", "overall_service_request_due_date": null, "lat": 32.91606265659717, "lon": -96.704885218664671 }, "geometry": { "type": "Point", "coordinates": [ -96.704885218664671, 32.91606265659717 ] } },
{ "type": "Feature", "properties": { "service_request_number": "26-00445890", "address": "10443 LAS BRISAS DR, DALLAS, TX, 75243", "city_council_district": "10", "department": "Code Compliance", "service_request_type": "Code Concern - CCS", "ert_estimated_response_time": "4 Business Days", "status": "Closed", "created_date": "2026-10-08T14:44:44.000", "update_date": "2026-10-10T00:11:07.000", "priority": "Standard", "method_received_description": "Proactive", "unique_key": "500cs00002NKXBKAA5", "lat_location": "(32.91634066107571000,-96.70512985498537000)", "closed_date": "2026-10-10T00:11:07.000", "overall_service_request_due_date": null, "lat": 32.916340661075715, "lon": -96.705129854985358 }, "geometry": { "type": "Point", "coordinates": [ -96.705129854985358, 32.916340661075715 ] } },
{ "type": "Feature", "properties": { "service_request_number": "26-00445887", "address": "10435 LAS BRISAS DR, DALLAS, TX, 75243", "city_council_district": "10", "department": "Code Compliance", "service_request_type": "Code Concern - CCS", "ert_estimated_response_time": "4 Business Days", "status": "Closed", "created_date": "2026-10-08T14:43:44.000", "update_date": "2026-10-10T00:14:20.000", "priority": "Standard", "method_received_description": "Proactive", "unique_key": "500cs00002NMEkRAAX", "lat_location": "(32.91634330081719600,-96.70529379138418000)", "closed_date": "2026-10-10T00:14:20.000", "overall_service_request_due_date": null, "lat": 32.916343300817203, "lon": -96.705293791384179 }, "geometry": { "type": "Point", "coordinates": [ -96.705293791384179, 32.916343300817203 ] } },
{ "type": "Feature", "properties": { "service_request_number": "26-00445882", "address": "10448 LAS BRISAS DR, DALLAS, TX, 75243", "city_council_district": "10", "department": "Code Compliance", "service_request_type": "Code Concern - CCS", "ert_estimated_response_time": "4 Business Days", "status": "In Progress", "created_date": "2026-10-08T14:42:51.000", "update_date": "2026-10-08T15:07:36.000", "priority": "Standard", "method_received_description": "Proactive", "unique_key": "500cs00002NL0A5AAL", "lat_location": "(32.91606423959265000,-96.70500998728869000)", "closed_date": null, "overall_service_request_due_date": null, "lat": 32.91606423959265, "lon": -96.705009987288676 }, "geometry": { "type": "Point", "coordinates": [ -96.705009987288676, 32.91606423959265 ] } },
{ "type": "Feature", "properties": { "service_request_number": "26-00445853", "address": "9010 MARKVILLE DR, DALLAS, TX, 75243", "city_council_district": "10", "department": "Code Compliance", "service_request_type": "Code Concern - CCS", "ert_estimated_response_time": "4 Business Days", "status": "In Progress", "created_date": "2026-10-08T14:33:35.000", "update_date": "2026-10-08T16:35:34.000", "priority": "Emergency", "method_received_description": "Phone", "unique_key": "500cs00002NKL0SAAX", "lat_location": "(32.91556703920932000,-96.75024085239312000)", "closed_date": null, "overall_service_request_due_date": null, "lat": 32.915567039209321, "lon": -96.750240852393119 }, "geometry": { "type": "Point", "coordinates": [ -96.750240852393119, 32.915567039209321 ] } },
{ "type": "Feature", "properties": { "service_request_number": "26-00445718", "address": "12030 GALVA DR, DALLAS, TX, 75243", "city_council_district": "10", "department": "Code Compliance", "service_request_type": "Code Concern - CCS", "ert_estimated_response_time": "4 Business Days", "status": "New", "created_date": "2026-10-08T13:39:44.000", "update_date": "2026-10-08T14:26:18.000", "priority": "Emergency", "method_received_description": "Phone", "unique_key": "500cs00002NJKZSAA5", "lat_location": "(32.91229003471747000,-96.76348652449488000)", "closed_date": null, "overall_service_request_due_date": null, "lat": 32.912290034717472, "lon": -96.76348652449488 }, "geometry": { "type": "Point", "coordinates": [ -96.76348652449488, 32.912290034717472 ] } },
{ "type": "Feature", "properties": { "service_request_number": "26-00445608", "address": "9030 MARKVILLE DR, DALLAS, TX, 75243", "city_council_district": "10", "department": "Code Compliance", "service_request_type": "Code Concern - CCS", "ert_estimated_response_time": "4 Business Days", "status": "New", "created_date": "2026-10-08T12:58:30.000", "update_date": "2026-10-08T12:58:40.000", "priority": "Standard", "method_received_description": "Phone", "unique_key": "500cs00002NJoFmAAL", "lat_location": "(32.91474826642901500,-96.74968187488349000)", "closed_date": null, "overall_service_request_due_date": null, "lat": 32.914748266429015, "lon": -96.749681874883493 }, "geometry": { "type": "Point", "coordinates": [ -96.749681874883493, 32.914748266429015 ] } },
{ "type": "Feature", "properties": { "service_request_number": "26-00445189", "address": "9659 FOREST LN, DALLAS, TX, 75243", "city_council_district": "10", "department": "Code Compliance", "service_request_type": "Code Concern - CCS", "ert_estimated_response_time": "4 Business Days", "status": "Closed", "created_date": "2026-10-08T10:29:06.000", "update_date": "2026-10-09T14:51:18.000", "priority": "Emergency", "method_received_description": "Phone", "unique_key": "500cs00002NFEpHAAX", "lat_location": "(32.90978354301936500,-96.72491763796086000)", "closed_date": "2026-10-09T14:05:19.000", "overall_service_request_due_date": null, "lat": 32.909783543019365, "lon": -96.724917637960857 }, "geometry": { "type": "Point", "coordinates": [ -96.724917637960857, 32.909783543019365 ] } },
{ "type": "Feature", "properties": { "service_request_number": "26-00445103", "address": "12014 OBERLIN DR, DALLAS, TX, 75243", "city_council_district": "10", "department": "Code Compliance", "service_request_type": "Code Concern - CCS", "ert_estimated_response_time": "4 Business Days", "status": "Closed", "created_date": "2026-10-08T09:59:59.000", "update_date": "2026-10-08T10:44:43.000", "priority": "Standard", "method_received_description": "Proactive", "unique_key": "500cs00002NF6LQAA1", "lat_location": "(32.91155430787951000,-96.75938290964169000)", "closed_date": "2026-10-08T10:44:43.000", "overall_service_request_due_date": null, "lat": 32.911554307879513, "lon": -96.759382909641687 }, "geometry": { "type": "Point", "coordinates": [ -96.759382909641687, 32.911554307879513 ] } },
{ "type": "Feature", "properties": { "service_request_number": "26-00444969", "address": "12024 OBERLIN DR, DALLAS, TX, 75243", "city_council_district": "10", "department": "Code Compliance", "service_request_type": "Code Concern - CCS", "ert_estimated_response_time": "4 Business Days", "status": "Closed", "created_date": "2026-10-08T09:19:00.000", "update_date": "2026-10-08T09:38:01.000", "priority": "Standard", "method_received_description": "Proactive", "unique_key": "500cs00002NEnygAAD", "lat_location": "(32.91162100084610000,-96.75932519696303000)", "closed_date": "2026-10-08T09:38:00.000", "overall_service_request_due_date": null, "lat": 32.911621000846097, "lon": -96.759325196963033 }, "geometry": { "type": "Point", "coordinates": [ -96.759325196963033, 32.911621000846097 ] } },
{ "type": "Feature", "properties": { "service_request_number": "26-00444803", "address": "10010 FOREST LN, DALLAS, TX, 75243", "city_council_district": "10", "department": "Code Compliance", "service_request_type": "Code Concern - CCS", "ert_estimated_response_time": "4 Business Days", "status": "New", "created_date": "2026-10-08T07:58:49.000", "update_date": "2026-10-08T07:59:00.000", "priority": "Standard", "method_received_description": "Phone", "unique_key": "500cs00002NCtDoAAL", "lat_location": "(32.90890928225826400,-96.71303471288512000)", "closed_date": null, "overall_service_request_due_date": null, "lat": 32.908909282258264, "lon": -96.713034712885118 }, "geometry": { "type": "Point", "coordinates": [ -96.713034712885118, 32.908909282258264 ] } },
{ "type": "Feature", "properties": { "service_request_number": "26-00444750", "address": "8724 GLADWOOD LN, DALLAS, TX, 75243", "city_council_district": "10", "department": "Code Compliance", "service_request_type": "Code Concern - CCS", "ert_estimated_response_time": "4 Business Days", "status": "New", "created_date": "2026-10-08T07:09:04.000", "update_date": "2026-10-08T07:09:13.000", "priority": "Standard", "method_received_description": "API", "unique_key": "500cs00002NCPKYAA5", "lat_location": "(32.90202576038567000,-96.75400578971515000)", "closed_date": null, "overall_service_request_due_date": null, "lat": 32.902025760385669, "lon": -96.754005789715166 }, "geometry": { "type": "Point", "coordinates": [ -96.754005789715166, 32.902025760385669 ] } },
{ "type": "Feature", "properties": { "service_request_number": "26-00444573", "address": "12024 OBERLIN DR, DALLAS, TX, 75243", "city_council_district": "10", "department": "Code Compliance", "service_request_type": "Code Concern - CCS", "ert_estimated_response_time": "4 Business Days", "status": "New", "created_date": "2026-10-07T20:57:35.000", "update_date": "2026-10-07T21:43:05.000", "priority": "Standard", "method_received_description": "API", "unique_key": "500cs00002N9iMvAAJ", "lat_location": "(32.91162100084610000,-96.75932519696303000)", "closed_date": null, "overall_service_request_due_date": null, "lat": 32.911621000846097, "lon": -96.759325196963033 }, "geometry": { "type": "Point", "coordinates": [ -96.759325196963033, 32.911621000846097 ] } },
{ "type": "Feature", "properties": { "service_request_number": "26-00444274", "address": "12504 HALLUM ST, DALLAS, TX, 75243", "city_council_district": "10", "department": "Code Compliance", "service_request_type": "Single Family Rental Needs Registration - CCS", "ert_estimated_response_time": "7 Business Days", "status": "New", "created_date": "2026-10-07T16:28:57.000", "update_date": "2026-10-07T16:29:03.000", "priority": "Standard", "method_received_description": "Phone", "unique_key": "500cs00002N6PLdAAN", "lat_location": "(32.91851651143493000,-96.75496892290968000)", "closed_date": null, "overall_service_request_due_date": "2026-12-22T00:59:00.000", "lat": 32.91851651143493, "lon": -96.754968922909683 }, "geometry": { "type": "Point", "coordinates": [ -96.754968922909683, 32.91851651143493 ] } },
{ "type": "Feature", "properties": { "service_request_number": "26-00444085", "address": "10220 DESERT WILLOW DR, DALLAS, TX, 75243", "city_council_district": "10", "department": "Code Compliance", "service_request_type": "Code Concern - CCS", "ert_estimated_response_time": "4 Business Days", "status": "Closed", "created_date": "2026-10-07T15:17:59.000", "update_date": "2026-10-09T16:51:21.000", "priority": "Standard", "method_received_description": "API", "unique_key": "500cs00002N41FPAAZ", "lat_location": "(32.92993422829553000,-96.70828885521632000)", "closed_date": "2026-10-09T16:51:21.000", "overall_service_request_due_date": null, "lat": 32.929934228295529, "lon": -96.708288855216324 }, "geometry": { "type": "Point", "coordinates": [ -96.708288855216324, 32.929934228295529 ] } },
{ "type": "Feature", "properties": { "service_request_number": "26-00443774", "address": "9479 TIMBERLEAF DR, DALLAS, TX, 75243", "city_council_district": "10", "department": "Code Compliance", "service_request_type": "Code Concern - CCS", "ert_estimated_response_time": "4 Business Days", "status": "New", "created_date": "2026-10-07T13:24:37.000", "update_date": "2026-10-07T13:24:45.000", "priority": "Standard", "method_received_description": "Phone", "unique_key": "500cs00002N2btFAAR", "lat_location": "(32.90659239403452600,-96.73351228107087000)", "closed_date": null, "overall_service_request_due_date": null, "lat": 32.906592394034526, "lon": -96.733512281070887 }, "geometry": { "type": "Point", "coordinates": [ -96.733512281070887, 32.906592394034526 ] } },
{ "type": "Feature", "properties": { "service_request_number": "26-00443601", "address": "11936 HOBLITZELLE DR, DALLAS, TX, 75243", "city_council_district": "10", "department": "Code Compliance", "service_request_type": "Single Family Rental Needs Registration - CCS", "ert_estimated_response_time": "7 Business Days", "status": "New", "created_date": "2026-10-07T12:26:21.000", "update_date": "2026-10-07T12:26:28.000", "priority": "Standard", "method_received_description": "Phone", "unique_key": "500cs00002N0zjbAAB", "lat_location": "(32.91090896676908000,-96.76186965318985000)", "closed_date": null, "overall_service_request_due_date": "2026-12-22T00:59:00.000", "lat": 32.910908966769078, "lon": -96.761869653189834 }, "geometry": { "type": "Point", "coordinates": [ -96.761869653189834, 32.910908966769078 ] } }
]
}
